NORAD_CAT_ID,OBJECT_NAME,OBJECT_TYPE,EPOCH,MEAN_MOTION,ECCENTRICITY,INCLINATION,RA_OF_ASC_NODE,ARG_OF_PERICENTER,MEAN_ANOMALY,BSTAR,MEAN_MOTION_DOT,MEAN_MOTION_DDOT,TLE_LINE0,TLE_LINE1,TLE_LINE2,SEMIMAJOR_AXIS,PERIOD,APOGEE,PERIGEE,DECAYED
51717.0,STARLINK-3445,PAYLOAD,2023-02-04 05:07:54,15.08840456,0.0001275,53.2172,359.5366,116.7298,243.3825,0.00010431,1.373e-05,0.0,0 STARLINK-3445,1 51717U 22016D   23035.21382462  .00001373  00000-0  10431-3 0  9999,2 51717  53.2172 359.5366 0001275 116.7298 243.3825 15.08840456 54040,6917.879,95.438,540.626,538.862,0.0
51717.0,STARLINK-3445,PAYLOAD,2023-02-04 21:01:46,15.08837677,0.0001326,53.2172,356.5648,91.259,268.8554,6.5985e-05,7.62e-06,0.0,0 STARLINK-3445,1 51717U 22016D   23035.87622939  .00000762  00000-0  65985-4 0  9993,2 51717  53.2172 356.5648 0001326  91.2590 268.8554 15.08837677 54142,6917.887,95.438,540.67,538.835,0.0
51717.0,STARLINK-3445,PAYLOAD,2023-02-05 03:23:18,15.0883713,0.0001277,53.2172,355.375,89.3972,270.7166,1.3237e-05,-7.7e-07,0.0,0 STARLINK-3445,1 51717U 22016D   23036.14119066 -.00000077  00000-0  13237-4 0  9999,2 51717  53.2172 355.3750 0001277  89.3972 270.7166 15.08837130 53054,6917.889,95.438,540.638,538.871,0.0
51717.0,STARLINK-3445,PAYLOAD,2023-02-05 20:52:33,15.08840963,0.0001275,53.2186,352.104,99.4336,260.68,0.00025612,3.791e-05,0.0,0 STARLINK-3445,1 51717U 22016D   23036.86983068  .00003791  00000-0  25612-3 0  9993,2 51717  53.2186 352.1040 0001275  99.4336 260.6800 15.08840963 53163,6917.877,95.437,540.624,538.86,0.0
51717.0,STARLINK-3445,PAYLOAD,2023-02-06 03:14:05,15.08848999,0.0001052,53.2176,350.9139,92.5337,267.5776,0.00037135,5.629e-05,0.0,0 STARLINK-3445,1 51717U 22016D   23037.13478779  .00005629  00000-0  37135-3 0  9997,2 51717  53.2176 350.9139 0001052  92.5337 267.5776 15.08848999 54330,6917.853,95.437,540.446,538.99,0.0
51717.0,STARLINK-3445,PAYLOAD,2023-02-06 19:07:57,15.08843244,0.0001145,53.2171,347.9404,86.622,273.4903,0.00014026,1.945e-05,0.0,0 STARLINK-3445,1 51717U 22016D   23037.79718893  .00001945  00000-0  14026-3 0  9994,2 51717  53.2171 347.9404 0001145  86.6220 273.4903 15.08843244 53306,6917.87,95.437,540.528,538.943,0.0
51717.0,STARLINK-3445,PAYLOAD,2023-02-06 20:43:20,15.08846727,0.0001204,53.2171,347.6431,86.4705,273.6425,7.1605e-05,8.52e-06,0.0,0 STARLINK-3445,1 51717U 22016D   23037.86342695  .00000852  00000-0  71605-4 0  9998,2 51717  53.2171 347.6431 0001204  86.4705 273.6425 15.08846727 54441,6917.86,95.437,540.558,538.892,0.0
51717.0,STARLINK-3445,PAYLOAD,2023-02-07 06:15:38,15.08856504,0.0001129,53.2175,345.8595,73.4898,286.6219,0.00029758,4.453e-05,0.0,0 STARLINK-3445,1 51717U 22016D   23038.26086084  .00004453  00000-0  29758-3 0  9992,2 51717  53.2175 345.8595 0001129  73.4898 286.6219 15.08856504 54507,6917.83,95.437,540.476,538.914,0.0
51717.0,STARLINK-3445,PAYLOAD,2023-02-07 20:34:07,15.08835444,0.0001142,53.2173,343.1832,106.7063,253.4055,-0.00012706,-2.309e-05,0.0,0 STARLINK-3445,1 51717U 22016D   23038.85702906 -.00002309  00000-0 -12706-3 0  9990,2 51717  53.2173 343.1832 0001142 106.7063 253.4055 15.08835444 53463,6917.894,95.438,540.549,538.969,0.0
51717.0,STARLINK-3445,PAYLOAD,2023-02-07 22:09:30,15.08836063,0.0001137,53.217,342.8861,105.0824,255.0294,-8.1901e-05,-1.591e-05,0.0,0 STARLINK-3445,1 51717U 22016D   23038.92326901 -.00001591  00000-0 -81901-4 0  9991,2 51717  53.2170 342.8861 0001137 105.0824 255.0294 15.08836063 54607,6917.892,95.438,540.544,538.971,0.0
51717.0,STARLINK-3445,PAYLOAD,2023-02-08 06:06:25,15.08851868,0.0001135,53.2168,341.3989,92.2695,267.8427,0.00017733,2.536e-05,0.0,0 STARLINK-3445,1 51717U 22016D   23039.25446202  .00002536  00000-0  17733-3 0  9994,2 51717  53.2168 341.3989 0001135  92.2695 267.8427 15.08851868 54654,6917.844,95.437,540.494,538.924,0.0
51717.0,STARLINK-3445,PAYLOAD,2023-02-08 07:41:48,15.08856362,0.00012,53.2168,341.1026,90.2971,269.8159,0.0003356,5.06e-05,0.0,0 STARLINK-3445,1 51717U 22016D   23039.32070080  .00005060  00000-0  33560-3 0  9990,2 51717  53.2168 341.1026 0001200  90.2971 269.8159 15.08856362 53536,6917.83,95.437,540.526,538.865,0.0
51717.0,STARLINK-3445,PAYLOAD,2023-02-09 02:46:26,15.08857935,0.0001099,53.2172,337.5343,109.4641,250.647,0.0013312,0.00020972,0.0,0 STARLINK-3445,1 51717U 22016D   23040.11558964  .00020972  00000-0  13312-2 0  9992,2 51717  53.2172 337.5343 0001099 109.4641 250.6470 15.08857935 54784,6917.826,95.436,540.451,538.93,0.0
51717.0,STARLINK-3445,PAYLOAD,2023-02-09 20:15:41,15.08827363,0.000107,53.2165,334.2634,90.2955,269.816,0.0012951,0.00020376,0.0,0 STARLINK-3445,1 51717U 22016D   23040.84423299  .00020376  00000-0  12951-2 0  9990,2 51717  53.2165 334.2634 0001070  90.2955 269.8160 15.08827363 54899,6917.919,95.438,540.524,539.044,0.0
51717.0,STARLINK-3445,PAYLOAD,2023-02-10 02:37:14,15.0883672,9.99e-05,53.2163,333.0742,88.5627,271.548,0.003435,0.000548,0.0,0 STARLINK-3445,1 51717U 22016D   23041.10919780  .00054800  00000-0  34350-2 0  9991,2 51717  53.2163 333.0742 0000999  88.5627 271.5480 15.08836720 53801,6917.89,95.438,540.447,539.064,0.0
51717.0,STARLINK-3445,PAYLOAD,2023-02-10 20:06:28,15.08874946,0.0001085,53.2157,329.8033,108.6224,251.4886,0.0021833,0.00034664,0.0,0 STARLINK-3445,1 51717U 22016D   23041.83783062  .00034664  00000-0  21833-2 0  9991,2 51717  53.2157 329.8033 0001085 108.6224 251.4886 15.08874946 53915,6917.774,95.435,540.389,538.888,0.0
51717.0,STARLINK-3445,PAYLOAD,2023-02-10 23:17:14,15.08892545,0.0001109,53.2157,329.2082,109.6379,250.4732,0.0029322,0.00046755,0.0,0 STARLINK-3445,1 51717U 22016D   23041.97030636  .00046755  00000-0  29322-2 0  9993,2 51717  53.2157 329.2082 0001109 109.6379 250.4732 15.08892545 55064,6917.72,95.434,540.352,538.818,0.0
51717.0,STARLINK-3445,PAYLOAD,2023-02-11 02:28:00,15.08910406,0.0001034,53.2155,328.6138,106.2911,253.8195,0.0034192,0.00054656,0.0,0 STARLINK-3445,1 51717U 22016D   23042.10278064  .00054656  00000-0  34192-2 0  9998,2 51717  53.2155 328.6138 0001034 106.2911 253.8195 15.08910406 53952,6917.665,95.433,540.245,538.815,0.0
51717.0,STARLINK-3445,PAYLOAD,2023-02-11 21:32:38,15.08849666,7.89e-05,53.2162,325.0435,88.4552,271.6531,0.0027433,0.00043654,0.0,0 STARLINK-3445,1 51717U 22016D   23042.89766533  .00043654  00000-0  27433-2 0  9993,2 51717  53.2162 325.0435 0000789  88.4552 271.6531 15.08849666 55200,6917.851,95.437,540.262,539.17,0.0
51717.0,STARLINK-3445,PAYLOAD,2023-02-12 03:54:10,15.08853819,0.0001007,53.2154,323.8564,68.9801,291.1298,0.0023143,0.0003675,0.0,0 STARLINK-3445,1 51717U 22016D   23043.16262528  .00036750  00000-0  23143-2 0  9992,2 51717  53.2154 323.8564 0001007  68.9801 291.1298 15.08853819 55240,6917.838,95.437,540.4,539.007,0.0
51717.0,STARLINK-3445,PAYLOAD,2023-02-12 21:23:26,15.08831189,0.0001322,53.2148,320.5847,91.9288,268.1855,0.0017653,0.00027912,0.0,0 STARLINK-3445,1 51717U 22016D   23043.89127971  .00027912  00000-0  17653-2 0  9993,2 51717  53.2148 320.5847 0001322  91.9288 268.1855 15.08831189 55357,6917.907,95.438,540.687,538.858,0.0
51717.0,STARLINK-3445,PAYLOAD,2023-02-13 11:41:55,15.08829495,0.0002644,53.2152,317.9079,81.4948,278.6344,0.0027059,0.00043029,0.0,0 STARLINK-3445,1 51717U 22016D   23044.48744878  .00043029  00000-0  27059-2 0  9998,2 51717  53.2152 317.9079 0002644  81.4948 278.6344 15.08829495 55440,6917.912,95.438,541.607,537.948,0.0
51717.0,STARLINK-3445,PAYLOAD,2023-02-14 00:25:00,15.08848484,0.0001392,53.2158,315.5266,94.4676,265.6475,0.0014248,0.00022466,0.0,0 STARLINK-3445,1 51717U 22016D   23045.01736422  .00022466  00000-0  14248-2 0  9992,2 51717  53.2158 315.5266 0001392  94.4676 265.6475 15.08848484 55528,6917.854,95.437,540.682,538.756,0.0
51717.0,STARLINK-3445,PAYLOAD,2023-02-15 00:15:47,15.08860583,9.01e-05,53.216,311.0663,75.2734,284.8358,0.0011998,0.00018869,0.0,0 STARLINK-3445,1 51717U 22016D   23046.01096179  .00018869  00000-0  11998-2 0  9992,2 51717  53.2160 311.0663 0000901  75.2734 284.8358 15.08860583 55673,6917.817,95.436,540.306,539.059,0.0
51717.0,STARLINK-3445,PAYLOAD,2023-02-15 20:55:47,15.08862924,0.0001059,53.2174,307.2009,80.7924,279.3188,0.001491,0.00023536,0.0,0 STARLINK-3445,1 51717U 22016D   23046.87207986  .00023536  00000-0  14910-2 0  9990,2 51717  53.2174 307.2009 0001059  80.7924 279.3188 15.08862924 54676,6917.81,95.436,540.408,538.943,0.0
51717.0,STARLINK-3445,PAYLOAD,2023-02-16 00:06:32,15.08923661,0.0001304,53.2175,306.6096,78.8559,281.258,0.0037407,0.00059889,0.0,0 STARLINK-3445,1 51717U 22016D   23047.00454581  .00059889  00000-0  37407-2 0  9997,2 51717  53.2175 306.6096 0001304  78.8559 281.2580 15.08923661 55823,6917.625,95.432,540.392,538.588,0.0
51717.0,STARLINK-3445,PAYLOAD,2023-02-16 09:38:50,15.08925541,0.0001972,53.216,304.8209,55.4294,304.6884,0.0023307,0.00037088,0.0,0 STARLINK-3445,1 51717U 22016D   23047.40196839  .00037088  00000-0  23307-2 0  9991,2 51717  53.2160 304.8209 0001972  55.4294 304.6884 15.08925541 54758,6917.619,95.432,540.848,538.12,0.0
51717.0,STARLINK-3445,PAYLOAD,2023-02-16 16:00:23,15.08864299,0.0004242,53.2152,303.634,87.1733,272.9744,9.6415e-06,-1.36e-06,0.0,0 STARLINK-3445,1 51717U 22016D   23047.66694173 -.00000136  00000-0  96415-5 0  9991,2 51717  53.2152 303.6340 0004242  87.1733 272.9744 15.08864299 55929,6917.806,95.436,542.606,536.737,0.0
51717.0,STARLINK-3445,PAYLOAD,2023-02-16 22:21:56,15.08800971,0.0001361,53.2149,302.445,83.2114,276.9033,-0.0015898,-0.00025473,0.0,0 STARLINK-3445,1 51717U 22016D   23047.93190934 -.00025473  00000-0 -15898-2 0  9992,2 51717  53.2149 302.4450 0001361  83.2114 276.9033 15.08800971 55969,6918.0,95.44,540.806,538.923,0.0
51717.0,STARLINK-3445,PAYLOAD,2023-02-17 03:08:07,15.08789433,0.0001429,53.2154,301.5519,79.7783,280.337,0.0026912,0.00042743,0.0,0 STARLINK-3445,1 51717U 22016D   23048.13064176  .00042743  00000-0  26912-2 0  9999,2 51717  53.2154 301.5519 0001429  79.7783 280.3370 15.08789433 55993,6918.035,95.441,540.889,538.911,0.0
